IRIDIUM 126             
1 42809U 17039G   24100.85725643  .00000081  00000+0  21732-4 0  9997
2 42809  86.3970 327.2867 0002241  93.0597 267.0855 14.34218728355528
IRIDIUM 124             
1 42810U 17039H   24100.70777967  .00000166  00000+0  43304-4 0  9992
2 42810  86.4446 264.0477 0002130  86.1973 273.9471 14.43276903359941
IRIDIUM 121             
1 42812U 17039K   24100.87628377  .00000051  00000+0  11085-4 0  9996
2 42812  86.3972 327.3011 0002164  87.0424 273.1019 14.34218066355404
IRIDIUM 133             
1 42955U 17061A   24100.94947588 -.00000007  00000+0 -94496-5 0  9996
2 42955  86.4019 358.8511 0002050  87.7075 272.4355 14.34217567340361
IRIDIUM 100             
1 42956U 17061B   24100.45475379  .00000098  00000+0  27814-4 0  9994
2 42956  86.4021 358.9954 0002218  88.1802 271.9648 14.34217851340293
IRIDIUM 129             
1 42958U 17061D   24100.72749492  .00000365  00000+0  12313-3 0  9990
2 42958  86.4022 358.9382 0002323  87.9319 272.2143 14.34219987340351
